{
  "type": "FeatureCollection",
  "features": [
    {
      "type": "Feature",
      "properties": {
        "norad_id": 30127,
        "name": "FENGYUN 1C DEB",
        "group": "fengyun-1c-debris",
        "lat": 63.03545112622787,
        "lon": 39.844125377999205,
        "alt_km": 710.195236115228,
        "timestamp": "2025-12-12T20:43:07.309124+00:00",
        "meta_object_name": "FENGYUN 1C DEB",
        "meta_object_id": "1999-025SG",
        "meta_epoch": "2025-12-11T00:46:11.818272",
        "meta_mean_motion": 14.37951525,
        "meta_eccentricity": 0.00852946,
        "meta_inclination": 98.2073,
        "meta_ra_of_asc_node": 201.6141,
        "meta_arg_of_pericenter": 84.1508,
        "meta_mean_anomaly": 276.9395,
        "meta_ephemeris_type": 0,
        "meta_classification_type": "U",
        "meta_norad_cat_id": 30127,
        "meta_element_set_no": 999,
        "meta_rev_at_epoch": 97211,
        "meta_bstar": 0.0035457649,
        "meta_mean_motion_dot": 0.0001115,
        "meta_mean_motion_ddot": 0,
        "tle_line1": "1 30127U 99025SG  25345.03208123  .00011150  00000+0  35458-2 0  9990",
        "tle_line2": "2 30127  98.2073 201.6141 0085294  84.1508 276.9395 14.37951525972116"
      },
      "geometry": {
        "type": "Point",
        "coordinates": [
          39.844125377999205,
          63.03545112622787
        ]
      }
    },
    {
      "type": "Feature",
      "properties": {
        "norad_id": 30128,
        "name": "FENGYUN 1C DEB",
        "group": "fengyun-1c-debris",
        "lat": 81.01226220744728,
        "lon": -143.63748507545003,
        "alt_km": 663.7654370623632,
        "timestamp": "2025-12-12T20:43:07.309134+00:00",
        "meta_object_name": "FENGYUN 1C DEB",
        "meta_object_id": "1999-025SH",
        "meta_epoch": "2025-12-12T05:55:22.478016",
        "meta_mean_motion": 14.46095957,
        "meta_eccentricity": 0.01074818,
        "meta_inclination": 96.9806,
        "meta_ra_of_asc_node": 345.0821,
        "meta_arg_of_pericenter": 126.4283,
        "meta_mean_anomaly": 2.3198,
        "meta_ephemeris_type": 0,
        "meta_classification_type": "U",
        "meta_norad_cat_id": 30128,
        "meta_element_set_no": 999,
        "meta_rev_at_epoch": 97304,
        "meta_bstar": 0.0038337484,
        "meta_mean_motion_dot": 0.00014692,
        "meta_mean_motion_ddot": 0,
        "tle_line1": "1 30128U 99025SH  25346.24678794  .00014692  00000+0  38337-2 0  9993",
        "tle_line2": "2 30128  96.9806 345.0821 0107481 126.4283   2.3198 14.46095957973040"
      },
      "geometry": {
        "type": "Point",
        "coordinates": [
          -143.63748507545003,
          81.01226220744728
        ]
      }
    },
    {
      "type": "Feature",
      "properties": {
        "norad_id": 30129,
        "name": "FENGYUN 1C DEB",
        "group": "fengyun-1c-debris",
        "lat": 30.441012847553704,
        "lon": -76.05420740798615,
        "alt_km": 818.583335549788,
        "timestamp": "2025-12-12T20:43:07.309144+00:00",
        "meta_object_name": "FENGYUN 1C DEB",
        "meta_object_id": "1999-025SJ",
        "meta_epoch": "2025-12-12T07:35:58.120224",
        "meta_mean_motion": 14.01576552,
        "meta_eccentricity": 0.01886828,
        "meta_inclination": 98.0274,
        "meta_ra_of_asc_node": 288.2212,
        "meta_arg_of_pericenter": 93.597,
        "meta_mean_anomaly": 62.5731,
        "meta_ephemeris_type": 0,
        "meta_classification_type": "U",
        "meta_norad_cat_id": 30129,
        "meta_element_set_no": 999,
        "meta_rev_at_epoch": 96472,
        "meta_bstar": 0.00072850521,
        "meta_mean_motion_dot": 1.254e-05,
        "meta_mean_motion_ddot": 0,
        "tle_line1": "1 30129U 99025SJ  25346.31664491  .00001254  00000+0  72851-3 0  9991",
        "tle_line2": "2 30129  98.0274 288.2212 0188682  93.5970  62.5731 14.01576552964726"
      },
      "geometry": {
        "type": "Point",
        "coordinates": [
          -76.05420740798615,
          30.441012847553704
        ]
      }
    },
    {
      "type": "Feature",
      "properties": {
        "norad_id": 30131,
        "name": "FENGYUN 1C DEB",
        "group": "fengyun-1c-debris",
        "lat": 67.46355874016055,
        "lon": -78.64687405359044,
        "alt_km": 774.4739121569901,
        "timestamp": "2025-12-12T20:43:07.309155+00:00",
        "meta_object_name": "FENGYUN 1C DEB",
        "meta_object_id": "1999-025SL",
        "meta_epoch": "2025-12-12T05:07:45.016608",
        "meta_mean_motion": 14.21179919,
        "meta_eccentricity": 0.00827848,
        "meta_inclination": 99.0744,
        "meta_ra_of_asc_node": 78.0335,
        "meta_arg_of_pericenter": 160.4186,
        "meta_mean_anomaly": 229.4703,
        "meta_ephemeris_type": 0,
        "meta_classification_type": "U",
        "meta_norad_cat_id": 30131,
        "meta_element_set_no": 999,
        "meta_rev_at_epoch": 96681,
        "meta_bstar": 0.0041997691,
        "meta_mean_motion_dot": 9.423e-05,
        "meta_mean_motion_ddot": 0,
        "tle_line1": "1 30131U 99025SL  25346.21371547  .00009423  00000+0  41998-2 0  9993",
        "tle_line2": "2 30131  99.0744  78.0335 0082784 160.4186 229.4703 14.21179919966815"
      },
      "geometry": {
        "type": "Point",
        "coordinates": [
          -78.64687405359044,
          67.46355874016055
        ]
      }
    },
    {
      "type": "Feature",
      "properties": {
        "norad_id": 30132,
        "name": "FENGYUN 1C DEB",
        "group": "fengyun-1c-debris",
        "lat": 80.3881557402354,
        "lon": -154.01190857318775,
        "alt_km": 846.0562294256633,
        "timestamp": "2025-12-12T20:43:07.309165+00:00",
        "meta_object_name": "FENGYUN 1C DEB",
        "meta_object_id": "1999-025SM",
        "meta_epoch": "2025-12-11T20:19:54.548832",
        "meta_mean_motion": 13.94848717,
        "meta_eccentricity": 0.01056508,
        "meta_inclination": 99.5774,
        "meta_ra_of_asc_node": 299.3964,
        "meta_arg_of_pericenter": 52.1134,
        "meta_mean_anomaly": 338.1635,
        "meta_ephemeris_type": 0,
        "meta_classification_type": "U",
        "meta_norad_cat_id": 30132,
        "meta_element_set_no": 999,
        "meta_rev_at_epoch": 96077,
        "meta_bstar": 0.00056807126,
        "meta_mean_motion_dot": 7.52e-06,
        "meta_mean_motion_ddot": 0,
        "tle_line1": "1 30132U 99025SM  25345.84715913  .00000752  00000+0  56807-3 0  9993",
        "tle_line2": "2 30132  99.5774 299.3964 0105650  52.1134 338.1635 13.94848717960777"
      },
      "geometry": {
        "type": "Point",
        "coordinates": [
          -154.01190857318775,
          80.3881557402354
        ]
      }
    },
    {
      "type": "Feature",
      "properties": {
        "norad_id": 30133,
        "name": "FENGYUN 1C DEB",
        "group": "fengyun-1c-debris",
        "lat": -18.931739957166098,
        "lon": 156.42227230795152,
        "alt_km": 865.4082386397349,
        "timestamp": "2025-12-12T20:43:07.309175+00:00",
        "meta_object_name": "FENGYUN 1C DEB",
        "meta_object_id": "1999-025SN",
        "meta_epoch": "2025-12-12T00:53:54.454848",
        "meta_mean_motion": 14.06666372,
        "meta_eccentricity": 0.0085553,
        "meta_inclination": 98.3246,
        "meta_ra_of_asc_node": 152.7835,
        "meta_arg_of_pericenter": 262.4828,
        "meta_mean_anomaly": 217.7978,
        "meta_ephemeris_type": 0,
        "meta_classification_type": "U",
        "meta_norad_cat_id": 30133,
        "meta_element_set_no": 999,
        "meta_rev_at_epoch": 96368,
        "meta_bstar": 0.0022433,
        "meta_mean_motion_dot": 3.809e-05,
        "meta_mean_motion_ddot": 0,
        "tle_line1": "1 30133U 99025SN  25346.03743582  .00003809  00000+0  22433-2 0  9992",
        "tle_line2": "2 30133  98.3246 152.7835 0085553 262.4828 217.7978 14.06666372963687"
      },
      "geometry": {
        "type": "Point",
        "coordinates": [
          156.42227230795152,
          -18.931739957166098
        ]
      }
    },
    {
      "type": "Feature",
      "properties": {
        "norad_id": 30134,
        "name": "FENGYUN 1C DEB",
        "group": "fengyun-1c-debris",
        "lat": -72.43062438651717,
        "lon": 34.78820538251017,
        "alt_km": 858.129307633345,
        "timestamp": "2025-12-12T20:43:07.309211+00:00",
        "meta_object_name": "FENGYUN 1C DEB",
        "meta_object_id": "1999-025SP",
        "meta_epoch": "2025-12-12T00:56:37.808736",
        "meta_mean_motion": 14.13345863,
        "meta_eccentricity": 0.0018987,
        "meta_inclination": 98.694,
        "meta_ra_of_asc_node": 5.0899,
        "meta_arg_of_pericenter": 185.3314,
        "meta_mean_anomaly": 229.8516,
        "meta_ephemeris_type": 0,
        "meta_classification_type": "U",
        "meta_norad_cat_id": 30134,
        "meta_element_set_no": 999,
        "meta_rev_at_epoch": 97236,
        "meta_bstar": 0.00066709,
        "meta_mean_motion_dot": 1.211e-05,
        "meta_mean_motion_ddot": 0,
        "tle_line1": "1 30134U 99025SP  25346.03932649  .00001211  00000+0  66709-3 0  9997",
        "tle_line2": "2 30134  98.6940   5.0899 0018987 185.3314 229.8516 14.13345863972366"
      },
      "geometry": {
        "type": "Point",
        "coordinates": [
          34.78820538251017,
          -72.43062438651717
        ]
      }
    }
  ]
}